OSCAR 7 (AO-7)          
1 07530U 74089B   17286.90394444 -.00000020  00000-0  15120-3 0  9999
2 07530 101.6472 253.3147 0012424  91.3161 330.9821 12.53629229963507
UOSAT 2 (UO-11)         
1 14781U 84021B   17287.19526100  .00000158  00000-0  25641-4 0  9991
2 14781  97.6841 328.4406 0008978 160.6325 199.5232 14.82942288807981
LUSAT (LO-19)           
1 20442U 90005G   17287.06480491  .00000021  00000-0  23773-4 0  9992
2 20442  98.5831 222.4079 0012184 151.7457 208.4390 14.32873402448646
EYESAT-1 (AO-27)        
1 22825U 93061C   17286.86106612  .00000032  00000-0  30332-4 0  9992
2 22825  98.8278 253.9884 0008279 352.8255   7.2807 14.30009491254363
ITAMSAT (IO-26)         
1 22826U 93061D   17287.49440891  .00000036  00000-0  31386-4 0  9997
2 22826  98.8221 254.6986 0008599 340.4227  19.6623 14.30339360254634
RADIO ROSTO (RS-15)     
1 23439U 94085A   17286.69533687 -.00000036  00000-0  18265-3 0  9993
2 23439  64.8204  27.4902 0165038 225.3933 259.3753 11.27566514938777
JAS-2 (FO-29)           
1 24278U 96046B   17286.62429425  .00000004  00000-0  39011-4 0  9998
2 24278  98.5429 154.0163 0350979  30.5983 331.5126 13.53079404 44895
TECHSAT 1B (GO-32)      
1 25397U 98043D   17286.90284604  .00000010  00000-0  23167-4 0  9991
2 25397  98.6198 226.7873 0001987  48.6692 311.4657 14.23630877   462
ISS (ZARYA)             
1 25544U 98067A   17287.52063924  .00003724  00000-0  63384-4 0  9990
2 25544  51.6417 163.4351 0004653  23.0640  49.2344 15.54169948 80312
PCSAT (NO-44)           
1 26931U 01043C   17286.89827631  .00000010  00000-0  35776-4 0  9990
2 26931  67.0500 144.9024 0005769 257.9178 102.1277 14.30478115837250
SAUDISAT 1C (SO-50)     
1 27607U 02058C   17287.03198701  .00000105  00000-0  35684-4 0  9997
2 27607  64.5539 122.3817 0035558  39.2286 321.1382 14.75375796796642
CUTE-1 (CO-55)          
1 27844U 03031E   17286.98463513  .00000093  00000-0  61621-4 0  9997
2 27844  98.6906 294.2663 0009939  10.5471 349.5913 14.22066439741200
CUBESAT XI-IV (CO-57)   
1 27848U 03031J   17286.80558353  .00000067  00000-0  50583-4 0  9995
2 27848  98.6997 294.3980 0010015  20.5465 339.6113 14.21677271741021
MOZHAYETS 4 (RS-22)     
1 27939U 03042A   17287.57316153  .00000186  00000-0  41848-4 0  9999
2 27939  97.9568  68.5905 0012492 202.0019 224.5237 14.66613534750816
CUBESAT XI-V (CO-58)    
1 28895U 05043F   17287.14424505  .00000275  00000-0  61616-4 0  9992
2 28895  97.8789  84.0565 0017975 125.0520 235.2372 14.63453394637882
CUTE-1.7+APD II (CO-65) 
1 32785U 08021C   17286.87032678  .00000446  00000-0  54221-4 0  9993
2 32785  97.5608 305.6892 0014300 130.9811 229.2646 14.87975504512544
DELFI-C3 (DO-64)        
1 32789U 08021G   17287.23106008  .00003568  00000-0  25298-3 0  9996
2 32789  97.5476 342.9006 0013844  61.1948 299.0667 15.05330364514775
SEEDS II (CO-66)        
1 32791U 08021J   17286.81900522  .00000690  00000-0  76224-4 0  9994
2 32791  97.5557 310.3635 0014874 116.1743 244.1007 14.90345074512733
YUBILEINY (RS-30)       
1 32953U 08025A   17287.40067767  .00000010  00000-0  31086-5 0  9993
2 32953  82.5043 165.5380 0019880  27.0035 333.2075 12.43079548426230
PRISM (HITOMI)          
1 33493U 09002B   17287.37377237  .00001756  00000-0  16239-3 0  9990
2 33493  98.1515 174.7366 0017084  51.7980 308.4766 14.95872093473597
KKS-1 (KISEKI)          
1 33499U 09002H   17287.52121208  .00000241  00000-0  43670-4 0  9996
2 33499  98.3431  96.4897 0009162   2.6313 357.4942 14.75242593468952
SWISSCUBE               
1 35932U 09051B   17287.08998897  .00000250  00000-0  67687-4 0  9995
2 35932  98.5129  67.8421 0006688 241.1868 118.8658 14.56067181427621
BEESAT                  
1 35933U 09051C   17286.92934954  .00000226  00000-0  62066-4 0  9991
2 35933  98.5168  69.0659 0004735 256.1693 103.8978 14.56180704427621
ITUPSAT 1               
1 35935U 09051E   17287.12084834  .00000187  00000-0  54261-4 0  9993
2 35935  98.5279  69.5160 0007123 250.1218 109.9211 14.55369087427538
XIWANG-1 (HOPE-1)       
1 36122U 09072B   17287.51618636 -.00000059  00000-0 -43822-4 0  9992
2 36122 100.0936 308.5022 0007056 324.2115  35.8526 13.16341595376329
TISAT 1                 
1 36799U 10035E   17286.90515064  .00000940  00000-0  10217-3 0  9994
2 36799  98.0762  52.1450 0011206 299.9890  60.0214 14.90544887393267
JUGNU                   
1 37839U 11058B   17287.51995899  .00000339  00000-0  39095-4 0  9990
2 37839  19.9609  86.9008 0019047  58.7628 345.0203 14.12596796310599
SRMSAT                  
1 37841U 11058D   17285.92242825  .00000338  00000-0  40704-4 0  9998
2 37841  19.9711 140.6965 0011782 294.5026 151.7408 14.10587110309928
M-CUBED & EXP-1 PRIME   
1 37855U 11061F   17286.73780497  .00002999  00000-0  16209-3 0  9996
2 37855 101.7067 218.3618 0179738  91.1605 271.0204 15.03477927324132
HORYU 2                 
1 38340U 12025D   17286.97578999  .00000384  00000-0  64712-4 0  9994
2 38340  98.3783 295.0990 0010374 274.9997  85.0026 14.75418720290803
STRAND-1                
1 39090U 13009E   17287.53503665  .00000069  00000-0  39768-4 0  9994
2 39090  98.5424 131.7940 0008405 311.7902  48.2565 14.34988547242595
SOMP                    
1 39134U 13015E   17286.93462319  .00003461  00000-0  17478-3 0  9995
2 39134  64.8662 203.0314 0036983 245.6893 114.0370 15.18309468247120
BEESAT-3                
1 39135U 13015F   17286.89401229  .00002902  00000-0  15865-3 0  9991
2 39135  64.8703 213.4101 0033110 265.7086  94.0255 15.15981458246919
BEESAT-2                
1 39136U 13015G   17287.17537058  .00002996  00000-0  16571-3 0  9992
2 39136  64.8709 214.6445 0033137 266.5948  93.1387 15.15483264247307
CUBEBUG-1 (CAPITAN BETO)
1 39153U 13018D   17287.47200528  .00000421  00000-0  62210-4 0  9999
2 39153  97.9850  19.1334 0017528  26.6761 333.5349 14.80257509241236
ZACUBE-1 (TSHEPISOSAT)  
1 39417U 13066B   17287.15983588  .00000428  00000-0  60710-4 0  9994
2 39417  97.6177 323.5597 0057999 239.9770 119.5681 14.80791087210383
TRITON-1                
1 39427U 13066M   17287.10457148  .00000424  00000-0  76048-4 0  9995
2 39427  97.6372 294.4892 0113472 328.4714  30.9725 14.67535741208487
GOMX 1                  
1 39430U 13066Q   17287.44329457  .00000533  00000-0  10547-3 0  9999
2 39430  97.6733 277.4362 0152545  26.9287 333.9728 14.58942987207329
HUMSAT-D                
1 39433U 13066T   17287.13481867  .00000936  00000-0  97967-4 0  9991
2 39433  97.6398 346.6675 0031254 178.9198 181.2094 14.91590694211749
EAGLE 2                 
1 39436U 13066W   17287.03879264  .00082528  00000-0  17394-2 0  9996
2 39436  97.7121  39.3347 0007439  11.5735 348.5682 15.44920555214944
CUBEBUG-2 (LO-74)       
1 39440U 13066AA  17287.12569257  .00000375  00000-0  59722-4 0  9992
2 39440  97.6205 311.7902 0079185 274.5229  84.6939 14.75531599209633
FUNCUBE-1 (AO-73)       
1 39444U 13066AE  17286.67486057  .00000456  00000-0  63124-4 0  9992
2 39444  97.6192 324.3057 0057181 237.8186 121.7475 14.81540011209150
UWE-3                   
1 39446U 13066AG  17286.62205708  .00000366  00000-0  55684-4 0  9993
2 39446  97.6179 316.8619 0068913 259.3773  99.9673 14.78063301208695
SPROUT                  
1 39770U 14029E   17287.38952403  .00001034  00000-0  12314-3 0  9993
2 39770  97.8738  25.6245 0007796 300.8393  59.2068 14.86457692183845
UNISAT-6                
1 40012U 14033C   17287.50316406  .00000369  00000-0  62968-4 0  9991
2 40012  97.8384 167.3788 0057160 270.5287  88.9373 14.73692642178512
DUCHIFAT-1              
1 40021U 14033M   17286.76451202  .00000846  00000-0  93467-4 0  9990
2 40021  97.9132 200.0711 0011564 272.1300  87.8593 14.90041044180256
FUNCUBE-3 (EO-79)       
1 40025U 14033R   17287.20061932  .00000616  00000-0  72251-4 0  9994
2 40025  97.9059 198.0630 0011081 275.5060  84.4893 14.88528160180193
CHUBUSAT-1              
1 40300U 14070C   17287.42710941  .00002350  00000-0  10806-3 0  9990
2 40300  97.3878   5.1068 0021670  47.8657  13.4121 15.21134332162910
NUDT-PHONESAT           
1 40900U 15049B   17287.48355034  .00005270  00000-0  24650-3 0  9993
2 40900  97.4445 293.7660 0014348 161.7539 198.4213 15.20104084114574
ZDPS 2A                 
1 40901U 15049C   17287.47819901  .00001919  00000-0  10160-3 0  9998
2 40901  97.4598 292.7773 0014229 164.7942 195.3721 15.16548525114417
ZDPS 2B                 
1 40902U 15049D   17287.48661496  .00001835  00000-0  97745-4 0  9996
2 40902  97.4476 291.2363 0014376 162.0707 198.1036 15.16373099114406
XW-2A                   
1 40903U 15049E   17287.49655568  .00004857  00000-0  12600-3 0  9994
2 40903  97.4137 314.6576 0014298 189.1284 170.9704 15.39389218115990
KAITUO 1A               
1 40904U 15049F   17287.50080381  .00001463  00000-0  82391-4 0  9997
2 40904  97.4580 290.7976 0015296 162.5850 348.4910 15.14698494114301
2015-049G               
1 40905U 15049G   17287.46125225  .00000925  00000-0  54836-4 0  9995
2 40905  97.4545 289.2652 0016547 155.5274 204.6747 15.13702663114246
XW-2C                   
1 40906U 15049H   17287.48727807  .00001469  00000-0  82472-4 0  9993
2 40906  97.4577 290.6246 0015799 155.6070 204.5913 15.14781184114295
XW-2D                   
1 40907U 15049J   17287.46200760  .00001585  00000-0  88438-4 0  9993
2 40907  97.4548 290.3349 0015218 153.5950 206.6061 15.14901765114291
LILACSAT 2              
1 40908U 15049K   17287.51625154  .00000783  00000-0  47515-4 0  9998
2 40908  97.4653 290.0446 0016831 153.4491 206.7606 15.13265969114211
XW-2F                   
1 40910U 15049M   17287.45742821  .00002503  00000-0  13382-3 0  9991
2 40910  97.4566 291.2091 0016131 151.0011 209.2121 15.15896629114216
XW-2B                   
1 40911U 15049N   17287.47126018  .00001542  00000-0  86275-4 0  9992
2 40911  97.4589 290.7787 0015106 153.9432 206.2564 15.14857323114199
